{
  "type": "FeatureCollection",
  "generator": "overpass-ide",
  "copyright": "The data included in this document is from www.openstreetmap.org. The data is made available under ODbL.",
  "timestamp": "2020-12-30T15:07:02Z",
  "features": [
    {
      "type": "Feature",
      "properties": {
        "@id": "node/296444494",
        "addr:conscriptionnumber": "558",
        "addr:housenumber": "558/7",
        "addr:postcode": "12800",
        "addr:street": "Slavojova",
        "addr:streetnumber": "7",
        "source:addr": "uir_adr",
        "uir_adr:ADRESA_KOD": "21738688"
      },
      "geometry": {
        "type": "Point",
        "coordinates": [
          14.4247188,
          50.0642472
        ]
      },
      "id": "node/296444494"
    },
    {
      "type": "Feature",
      "properties": {
        "@id": "node/8175554378",
        "addr:conscriptionnumber": "1754",
        "addr:housenumber": "1754/53a",
        "addr:place": "Nusle",
        "addr:postcode": "14000",
        "addr:street": "Nuselská",
        "addr:streetnumber": "53a",
        "ref:ruian:addr": "81316429"
      },
      "geometry": {
        "type": "Point",
        "coordinates": [
          14.4481096,
          50.0614011
        ]
      },
      "id": "node/8175554378"
    },
    {
      "type": "Feature",
      "properties": {
        "@id": "node/8175554379",
        "addr:conscriptionnumber": "1754",
        "addr:housenumber": "1754/10",
        "addr:place": "Nusle",
        "addr:postcode": "14000",
        "addr:street": "V Horkách",
        "addr:streetnumber": "10",
        "ref:ruian:addr": "81316259"
      },
      "geometry": {
        "type": "Point",
        "coordinates": [
          14.447811,
          50.0617783
        ]
      },
      "id": "node/8175554379"
    },
    {
      "type": "Feature",
      "properties": {
        "@id": "node/8175554380",
        "addr:conscriptionnumber": "1754",
        "addr:housenumber": "1754/10a",
        "addr:place": "Nusle",
        "addr:postcode": "14000",
        "addr:street": "V Horkách",
        "addr:streetnumber": "10a",
        "ref:ruian:addr": "81316399"
      },
      "geometry": {
        "type": "Point",
        "coordinates": [
          14.4484282,
          50.061853
        ]
      },
      "id": "node/8175554380"
    },
    {
      "type": "Feature",
      "properties": {
        "@id": "node/8175554381",
        "addr:conscriptionnumber": "1754",
        "addr:housenumber": "1754/53c",
        "addr:place": "Nusle",
        "addr:postcode": "14000",
        "addr:street": "Nuselská",
        "addr:streetnumber": "53c",
        "ref:ruian:addr": "81316232"
      },
      "geometry": {
        "type": "Point",
        "coordinates": [
          14.4484531,
          50.0608582
        ]
      },
      "id": "node/8175554381"
    },
    {
      "type": "Feature",
      "properties": {
        "@id": "node/8175554382",
        "addr:conscriptionnumber": "1754",
        "addr:housenumber": "1754/53b",
        "addr:place": "Nusle",
        "addr:postcode": "14000",
        "addr:street": "Nuselská",
        "addr:streetnumber": "53b",
        "ref:ruian:addr": "81316348"
      },
      "geometry": {
        "type": "Point",
        "coordinates": [
          14.448102,
          50.0609945
        ]
      },
      "id": "node/8175554382"
    },
    {
      "type": "Feature",
      "properties": {
        "@id": "node/8175554382",
        "addr:conscriptionnumber": "1754",
        "addr:housenumber": "1",
        "addr:place": "Nusle",
        "addr:postcode": "14000",
        "addr:street": "adresa",
        "addr:streetnumber": "1",
        "ref:ruian:addr": "81316348"
      },
      "geometry": {
        "type": "Point",
        "coordinates": [
          14.448102,
          50.0609945
        ]
      },
      "id": "node/8175554382"
    },
    {
      "type": "Feature",
      "properties": {
        "@id": "node/8175554383",
        "addr:conscriptionnumber": "1754",
        "addr:housenumber": "1754/53",
        "addr:place": "Nusle",
        "addr:postcode": "14000",
        "addr:street": "Nuselská",
        "addr:streetnumber": "53",
        "ref:ruian:addr": "81315805"
      },
      "geometry": {
        "type": "Point",
        "coordinates": [
          14.4476745,
          50.06116
        ]
      },
      "id": "node/8175554383"
    },
    {
      "type": "Feature",
      "properties": {
        "@id": "node/8195178631",
        "addr:housenumber": "576",
        "addr:street": "Jaromírova",
        "amenity": "cafe",
        "email": "miluse.jezdinska@mamacoffee.cz",
        "name": "mamacoffee",
        "opening_hours": "Mo-Fr 08:00-19:00, Sa-Su 10:00-18:00",
        "outdoor_seating": "no",
        "phone": "+420 777 263 403",
        "website": "https://mamacoffee.cz/cs/jaromirova/"
      },
      "geometry": {
        "type": "Point",
        "coordinates": [
          14.4289126,
          50.0649326
        ]
      },
      "id": "node/8195178631"
    }
  ]
}